0 FENGYUN 1C DEB
1 31819U 99025CHH 13280.87562619  .00000507  00000-0  22905-3 0  4364
2 31819 098.7785 308.3903 0094495 009.1976 114.3073 14.24141295334346
0 FENGYUN 1C DEB
1 31819U 99025CHH 13283.89637852  .00000617  00000-0  27447-3 0  4370
2 31819 098.7781 311.4079 0094332 000.4137 121.4886 14.24146335334772
0 FENGYUN 1C DEB
1 31819U 99025CHH 13286.34229433  .00000559  00000-0  25054-3 0  4383
2 31819 098.7774 313.8513 0094210 353.3011 061.5604 14.24149013335127
0 FENGYUN 1C DEB
1 31819U 99025CHH 13288.88508222  .00000706  00000-0  31161-3 0  4391
2 31819 098.7768 316.3913 0094093 345.8917 138.3331 14.24154100335484
0 FENGYUN 1C DEB
1 31819U 99025CHH 13290.92213230  .00000656  00000-0  29095-3 0  4400
2 31819 098.7766 318.4258 0094004 339.9406 142.2560 14.24156931335770
0 FENGYUN 1C DEB
1 31819U 99025CHH 13294.28227147  .00000729  00000-0  32108-3 0  4416
2 31819 098.7766 321.7814 0093870 330.1250 089.6818 14.24161895336254
